[{"OBJECT_NAME":"YAOGAN-30 05A","OBJECT_ID":"2018-011B","EPOCH":"2026-03-09T23:00:41.042304","MEAN_MOTION":15.02108706,"ECCENTRICITY":0.00040081,"INCLINATION":34.9973,"RA_OF_ASC_NODE":35.5053,"ARG_OF_PERICENTER":199.9129,"MEAN_ANOMALY":160.1423,"EPHEMERIS_TYPE":0,"CLASSIFICATION_TYPE":"U","NORAD_CAT_ID":43170,"ELEMENT_SET_NO":999,"REV_AT_EPOCH":44321,"BSTAR":0.00032465095,"MEAN_MOTION_DOT":4.327e-5,"MEAN_MOTION_DDOT":0},{"OBJECT_NAME":"CZ-6A DEB","OBJECT_ID":"2022-151SL","EPOCH":"2026-03-09T10:13:37.626816","MEAN_MOTION":15.13067162,"ECCENTRICITY":0.00442991,"INCLINATION":99.1095,"RA_OF_ASC_NODE":231.9477,"ARG_OF_PERICENTER":182.6933,"MEAN_ANOMALY":177.4061,"EPHEMERIS_TYPE":0,"CLASSIFICATION_TYPE":"U","NORAD_CAT_ID":54947,"ELEMENT_SET_NO":999,"REV_AT_EPOCH":17723,"BSTAR":0.0054047259,"MEAN_MOTION_DOT":0.00099065,"MEAN_MOTION_DDOT":0}]
